NORAD_CAT_ID,OBJECT_NAME,OBJECT_TYPE,EPOCH,MEAN_MOTION,ECCENTRICITY,INCLINATION,RA_OF_ASC_NODE,ARG_OF_PERICENTER,MEAN_ANOMALY,BSTAR,MEAN_MOTION_DOT,MEAN_MOTION_DDOT,TLE_LINE0,TLE_LINE1,TLE_LINE2,SEMIMAJOR_AXIS,PERIOD,APOGEE,PERIGEE,DECAYED
51890.0,STARLINK-3519,PAYLOAD,2022-11-17 09:41:25,15.08854868,0.0002395,53.2184,23.3393,34.2891,325.8256,0.00042286,6.451e-05,0.0,0 STARLINK-3519,1 51890U 22022AQ  22321.40376866  .00006451  00000-0  42286-3 0  9992,2 51890  53.2184  23.3393 0002395  34.2891 325.8256 15.08854868 40836,6917.835,95.437,541.357,538.043,0.0
51890.0,STARLINK-3519,PAYLOAD,2022-11-17 12:52:11,15.08853525,0.0002446,53.2184,22.7448,34.0652,326.0496,0.0004192,6.392e-05,0.0,0 STARLINK-3519,1 51890U 22022AQ  22321.53624864  .00006392  00000-0  41920-3 0  9998,2 51890  53.2184  22.7448 0002446  34.0652 326.0496 15.08853525 40850,6917.839,95.437,541.396,538.012,0.0
51890.0,STARLINK-3519,PAYLOAD,2022-11-17 14:27:35,15.08847825,0.000267,53.2182,22.446,32.3425,327.773,0.00028317,4.222e-05,0.0,0 STARLINK-3519,1 51890U 22022AQ  22321.60249041  .00004222  00000-0  28317-3 0  9991,2 51890  53.2182  22.4460 0002670  32.3425 327.7730 15.08847825 40863,6917.856,95.437,541.569,537.874,0.0
51890.0,STARLINK-3519,PAYLOAD,2022-11-18 12:42:58,15.08852589,0.0002435,53.2188,18.2845,32.0961,328.0179,0.00023251,3.415e-05,0.0,0 STARLINK-3519,1 51890U 22022AQ  22322.52984413  .00003415  00000-0  23251-3 0  9997,2 51890  53.2188  18.2845 0002435  32.0961 328.0179 15.08852589 41001,6917.842,95.437,541.391,538.0219999999998,0.0
51890.0,STARLINK-3519,PAYLOAD,2022-11-18 20:39:54,15.08845514,0.0002517,53.2182,16.7975,39.7168,320.4008,9.8842e-05,1.285e-05,0.0,0 STARLINK-3519,1 51890U 22022AQ  22322.86104558  .00001285  00000-0  98842-4 0  9990,2 51890  53.2182  16.7975 0002517  39.7168 320.4008 15.08845514 41058,6917.864000000001,95.437,541.47,537.987,0.0
51890.0,STARLINK-3519,PAYLOAD,2022-11-19 03:01:26,15.08842971,0.000241,53.218,15.6084,39.3212,320.7955,8.759299999999999e-05,1.106e-05,0.0,0 STARLINK-3519,1 51890U 22022AQ  22323.12600640  .00001106  00000-0  87593-4 0  9996,2 51890  53.2180  15.6084 0002410  39.3212 320.7955 15.08842971 41095,6917.871,95.437,541.404,538.069,0.0
51890.0,STARLINK-3519,PAYLOAD,2022-11-19 09:22:59,15.08837078,0.0002404,53.2183,14.4184,38.7795,321.337,-8.5826e-05,-1.654e-05,0.0,0 STARLINK-3519,1 51890U 22022AQ  22323.39096936 -.00001654  00000-0 -85826-4 0  9999,2 51890  53.2183  14.4184 0002404  38.7795 321.3370 15.08837078 41133,6917.889,95.438,541.4169999999998,538.091,0.0
51890.0,STARLINK-3519,PAYLOAD,2022-11-19 20:30:41,15.08843226,0.0002562,53.2188,12.337,34.793,325.3229,5.247e-05,5.47e-06,0.0,0 STARLINK-3519,1 51890U 22022AQ  22323.85464821  .00000547  00000-0  52470-4 0  9999,2 51890  53.2188  12.3370 0002562  34.7930 325.3229 15.08843226 41201,6917.871,95.437,541.508,537.9630000000002,0.0
51890.0,STARLINK-3519,PAYLOAD,2022-11-20 10:49:09,15.08842666,0.0002449,53.2186,9.6611,36.0231,324.0926,5.707800000000001e-05,6.2e-06,0.0,0 STARLINK-3519,1 51890U 22022AQ  22324.45080918  .00000620  00000-0  57078-4 0  9998,2 51890  53.2186   9.6611 0002449  36.0231 324.0926 15.08842666 41295,6917.871999999999,95.437,541.431,538.043,0.0
51890.0,STARLINK-3519,PAYLOAD,2022-11-20 20:21:28,15.08838854,0.000251,53.2186,7.877000000000002,34.1789,325.9364,0.00012118,1.641e-05,0.0,0 STARLINK-3519,1 51890U 22022AQ  22324.84825155  .00001641  00000-0  12118-3 0  9990,2 51890  53.2186   7.8770 0002510  34.1789 325.9364 15.08838854 41354,6917.884,95.438,541.485,538.013,0.0
51890.0,STARLINK-3519,PAYLOAD,2022-11-21 09:04:34,15.08834958,0.000243,53.2184,5.4978,33.8338,326.2809,7.7113e-05,9.39e-06,0.0,0 STARLINK-3519,1 51890U 22022AQ  22325.37817543  .00000939  00000-0  77113-4 0  9997,2 51890  53.2184   5.4978 0002430  33.8338 326.2809 15.08834958 41431,6917.896,95.438,541.442,538.08,0.0
51890.0,STARLINK-3519,PAYLOAD,2022-11-21 12:15:20,15.08835654,0.0002439,53.2185,4.9032,33.6599,326.4548,8.1882e-05,1.015e-05,0.0,0 STARLINK-3519,1 51890U 22022AQ  22325.51065557  .00001015  00000-0  81882-4 0  9997,2 51890  53.2185   4.9032 0002439  33.6599 326.4548 15.08835654 41451,6917.894,95.438,541.446,538.071,0.0
51890.0,STARLINK-3519,PAYLOAD,2022-11-21 20:12:16,15.08832128,0.0002433,53.2189,3.4161,35.3951,324.7202,0.00030291,4.535e-05,0.0,0 STARLINK-3519,1 51890U 22022AQ  22325.84185649  .00004535  00000-0  30291-3 0  9995,2 51890  53.2189   3.4161 0002433  35.3951 324.7202 15.08832128 41504,6917.904,95.438,541.453,538.086,0.0
51890.0,STARLINK-3519,PAYLOAD,2022-11-22 12:06:07,15.08847429,0.0002376,53.2189,0.4424,30.4336,329.6794,-6.7296e-05,-1.36e-05,0.0,0 STARLINK-3519,1 51890U 22022AQ  22326.50425190 -.00001360  00000-0 -67296-4 0  9998,2 51890  53.2189   0.4424 0002376  30.4336 329.6794 15.08847429 41603,6917.858,95.437,541.366,538.0790000000002,0.0
51890.0,STARLINK-3519,PAYLOAD,2022-11-22 13:41:30,15.08839529,0.0002333,53.2189,0.145,31.6565,328.4567,5.7563e-05,6.28e-06,0.0,0 STARLINK-3519,1 51890U 22022AQ  22326.57049347  .00000628  00000-0  57563-4 0  9991,2 51890  53.2189   0.1450 0002333  31.6565 328.4567 15.08839529 41617,6917.882,95.438,541.361,538.133,0.0
51890.0,STARLINK-3519,PAYLOAD,2022-11-23 08:46:08,15.08835795,0.000242,53.2188,356.577,31.6676,328.4461,9.6891e-05,1.254e-05,0.0,0 STARLINK-3519,1 51890U 22022AQ  22327.36537576  .00001254  00000-0  96891-4 0  9998,2 51890  53.2188 356.5770 0002420  31.6676 328.4461 15.08835795 41736,6917.893,95.438,541.432,538.0840000000002,0.0
51890.0,STARLINK-3519,PAYLOAD,2022-11-23 13:32:17,15.08836201,0.0002444,53.2187,355.685,30.5352,329.5782,5.1733e-05,5.35e-06,0.0,0 STARLINK-3519,1 51890U 22022AQ  22327.56409680  .00000535  00000-0  51733-4 0  9991,2 51890  53.2187 355.6850 0002444  30.5352 329.5782 15.08836201 41763,6917.892,95.438,541.448,538.066,0.0
51890.0,STARLINK-3519,PAYLOAD,2022-11-24 05:26:09,15.0884034,0.000245,53.2187,352.711,31.4589,328.6549,2.4651e-05,1.04e-06,0.0,0 STARLINK-3519,1 51890U 22022AQ  22328.22649540  .00000104  00000-0  24651-4 0  9997,2 51890  53.2187 352.7110 0002450  31.4589 328.6549 15.08840340 41860,6917.879,95.438,541.439,538.049,0.0
51890.0,STARLINK-3519,PAYLOAD,2022-11-24 08:36:55,15.08832735,0.0002473,53.2189,352.1165,30.6662,329.4475,3.2526999999999995e-05,2.29e-06,0.0,0 STARLINK-3519,1 51890U 22022AQ  22328.35897983  .00000229  00000-0  32527-4 0  9996,2 51890  53.2189 352.1165 0002473  30.6662 329.4475 15.08832735 41882,6917.903,95.438,541.4780000000002,538.057,0.0
51890.0,STARLINK-3519,PAYLOAD,2022-11-24 11:47:42,15.08831998,0.0002535,53.2188,351.5221,29.1794,330.9339,2.4312e-05,9.8e-07,0.0,0 STARLINK-3519,1 51890U 22022AQ  22328.49146100  .00000098  00000-0  24312-4 0  9996,2 51890  53.2188 351.5221 0002535  29.1794 330.9339 15.08831998 41904,6917.905,95.438,541.524,538.016,0.0
51890.0,STARLINK-3519,PAYLOAD,2022-11-25 00:30:46,15.08852768,0.0002544,53.2189,349.14300000000014,27.3859,332.7267,-0.00014507,-2.597e-05,0.0,0 STARLINK-3519,1 51890U 22022AQ  22329.02137113 -.00002597  00000-0 -14507-3 0  9992,2 51890  53.2189 349.1430 0002544  27.3859 332.7267 15.08852768 41988,6917.840999999999,95.437,541.466,537.946,0.0
51890.0,STARLINK-3519,PAYLOAD,2022-11-25 06:52:19,15.08837353,0.0002562,53.2189,347.9538,28.188,331.9251,0.00010065,1.314e-05,0.0,0 STARLINK-3519,1 51890U 22022AQ  22329.28633627  .00001314  00000-0  10065-3 0  9990,2 51890  53.2189 347.9538 0002562  28.1880 331.9251 15.08837353 42029,6917.888000000001,95.438,541.526,537.981,0.0
51890.0,STARLINK-3519,PAYLOAD,2022-11-25 18:00:02,15.08832645,0.0002562,53.2183,345.8731,28.6384,331.4748,2.5553e-05,1.18e-06,0.0,0 STARLINK-3519,1 51890U 22022AQ  22329.75002399  .00000118  00000-0  25553-4 0  9998,2 51890  53.2183 345.8731 0002562  28.6384 331.4748 15.08832645 42091,6917.903,95.438,541.54,537.996,0.0
51890.0,STARLINK-3519,PAYLOAD,2022-11-26 11:29:15,15.08864501,0.000255,53.2181,342.6029,28.704,331.4092,-0.00011414,-2.106e-05,0.0,0 STARLINK-3519,1 51890U 22022AQ  22330.47864753 -.00002106  00000-0 -11414-3 0  9990,2 51890  53.2181 342.6029 0002550  28.7040 331.4092 15.08864501 42202,6917.806,95.436,541.435,537.906,0.0
51890.0,STARLINK-3519,PAYLOAD,2022-11-27 04:58:29,15.08849974,0.0002457,53.2185,339.3274,34.0522,326.0628,5.31e-05,5.57e-06,0.0,0 STARLINK-3519,1 51890U 22022AQ  22331.20729092  .00000557  00000-0  53100-4 0  9993,2 51890  53.2185 339.3274 0002457  34.0522 326.0628 15.08849974 42316,6917.85,95.437,541.415,538.015,0.0
51890.0,STARLINK-3519,PAYLOAD,2022-11-27 09:44:39,15.08839508,0.0002983,53.2189,338.4431,19.722,340.3887,7.6173e-05,9.24e-06,0.0,0 STARLINK-3519,1 51890U 22022AQ  22331.40601731  .00000924  00000-0  76173-4 0  9997,2 51890  53.2189 338.4431 0002983  19.7220 340.3887 15.08839508 42345,6917.882,95.438,541.81,537.683,0.0
51890.0,STARLINK-3519,PAYLOAD,2022-11-27 17:41:35,15.08834474,0.0002602,53.2185,336.9516,28.6725,331.4409,6.7035e-05,7.78e-06,0.0,0 STARLINK-3519,1 51890U 22022AQ  22331.73722014  .00000778  00000-0  67035-4 0  9995,2 51890  53.2185 336.9516 0002602  28.6725 331.4409 15.08834474 42398,6917.897,95.438,541.562,537.962,0.0
51890.0,STARLINK-3519,PAYLOAD,2022-11-28 09:35:27,15.08836571,0.0002791,53.2195,333.9812,36.7888,323.3296,-6.2025e-05,-1.276e-05,0.0,0 STARLINK-3519,1 51890U 22022AQ  22332.39962450 -.00001276  00000-0 -62025-4 0  9998,2 51890  53.2195 333.9812 0002791  36.7888 323.3296 15.08836571 42499,6917.891,95.438,541.687,537.825,0.0
51890.0,STARLINK-3519,PAYLOAD,2022-11-28 17:32:22,15.08841373,0.0002575,53.219,332.4907,33.2836,326.8318,-1.3708e-05,-5.07e-06,0.0,0 STARLINK-3519,1 51890U 22022AQ  22332.73081890 -.00000507  00000-0 -13708-4 0  9996,2 51890  53.2190 332.4907 0002575  33.2836 326.8318 15.08841373 42543,6917.876,95.437,541.523,537.96,0.0
